STARLINK-36521          
1 67507U 26012Q   26030.25002315 -.01686759  80724-3 -43165-2 0  9994
2 67507  42.9963 177.1671 0001496 274.1281 252.1355 15.94503755  2880
STARLINK-36526          
1 67508U 26012R   26030.25002315 -.01694903  81557-3 -43063-2 0  9997
2 67508  42.9963 177.1575 0001426 272.1092 258.0045 15.94639040  2883
STARLINK-36541          
1 67509U 26012S   26030.25002315 -.02461578  16428-2 -63917-2 0  9993
2 67509  42.9964 177.1500 0001294 271.9268 260.9091 15.94315361  2822
STARLINK-36549          
1 67510U 26012T   26030.25002315 -.01618497  76322-3 -37188-2 0  9999
2 67510  42.9957 177.0033 0001492 262.7279 327.6395 15.96480218  2820
STARLINK-36540          
1 67511U 26012U   26030.25002315 -.02520958  17278-2 -64253-2 0  9992
2 67511  42.9964 177.1445 0001287 270.9162 264.3579 15.94664851  2883
STARLINK-36538          
1 67512U 26012V   26030.25002315 -.01666358  79264-3 -41691-2 0  9992
2 67512  42.9967 177.1348 0001573 268.5674 270.3410 15.94920802  2880
STARLINK-36531          
1 67513U 26012W   26030.25002315 -.01682643  80790-3 -41856-2 0  9997
2 67513  42.9970 177.1279 0001455 272.3357 269.5119 15.95030475  2827
STARLINK-36530          
1 67514U 26012X   26030.25002315 -.01660336  78921-3 -41022-2 0  9991
2 67514  42.9967 177.1176 0001456 265.2425 280.4738 15.95152836  2823
STARLINK-36543          
1 67515U 26012Y   26030.25002315 -.01653514  78419-3 -40589-2 0  9991
2 67515  42.9966 177.1090 0001538 265.8215 283.4440 15.95272103  2825
STARLINK-36537          
1 67516U 26012Z   26030.25002315 -.01647666  78143-3 -39801-2 0  9992
2 67516  42.9964 177.0874 0001593 268.2734 289.2704 15.95567210  2820
STARLINK-36544          
1 67517U 26012AA  26030.25002315 -.01654646  78624-3 -40327-2 0  9998
2 67517  42.9965 177.0989 0001513 268.7344 284.3177 15.95404545  2880
STARLINK-36412          
1 67518U 26012AB  26030.25002315 -.01656696  79220-3 -39265-2 0  9998
2 67518  42.9965 177.0588 0001551 271.0249 297.9827 15.95918646  2827
