CCSDS_OMM_VERS = 2.0
CREATION_DATE  = 
ORIGINATOR     = 

OBJECT_NAME    = STARLINK-36521
OBJECT_ID      = 2026-012Q
CENTER_NAME    = EARTH
REF_FRAME      = TEME
TIME_SYSTEM    = UTC
MEAN_ELEMENT_THEORY = SGP/SGP4

EPOCH          = 2026-01-30T06:00:02.000160
MEAN_MOTION    = 15.94503755
ECCENTRICITY   = .00014963
INCLINATION    = 42.9963
RA_OF_ASC_NODE = 177.1671
ARG_OF_PERICENTER = 274.1281
MEAN_ANOMALY   = 252.1355

EPHEMERIS_TYPE = 0
CLASSIFICATION_TYPE = U
NORAD_CAT_ID   = 67507
ELEMENT_SET_NO = 999
REV_AT_EPOCH   = 288
BSTAR          = -.43164777E-2
MEAN_MOTION_DOT = -.1686759E-1
MEAN_MOTION_DDOT = .80724059E-3

CCSDS_OMM_VERS = 2.0
CREATION_DATE  = 
ORIGINATOR     = 

OBJECT_NAME    = STARLINK-36526
OBJECT_ID      = 2026-012R
CENTER_NAME    = EARTH
REF_FRAME      = TEME
TIME_SYSTEM    = UTC
MEAN_ELEMENT_THEORY = SGP/SGP4

EPOCH          = 2026-01-30T06:00:02.000160
MEAN_MOTION    = 15.94639040
ECCENTRICITY   = .00014268
INCLINATION    = 42.9963
RA_OF_ASC_NODE = 177.1575
ARG_OF_PERICENTER = 272.1092
MEAN_ANOMALY   = 258.0045

EPHEMERIS_TYPE = 0
CLASSIFICATION_TYPE = U
NORAD_CAT_ID   = 67508
ELEMENT_SET_NO = 999
REV_AT_EPOCH   = 288
BSTAR          = -.43062794E-2
MEAN_MOTION_DOT = -.1694903E-1
MEAN_MOTION_DDOT = .81557062E-3

CCSDS_OMM_VERS = 2.0
CREATION_DATE  = 
ORIGINATOR     = 

OBJECT_NAME    = STARLINK-36541
OBJECT_ID      = 2026-012S
CENTER_NAME    = EARTH
REF_FRAME      = TEME
TIME_SYSTEM    = UTC
MEAN_ELEMENT_THEORY = SGP/SGP4

EPOCH          = 2026-01-30T06:00:02.000160
MEAN_MOTION    = 15.94315361
ECCENTRICITY   = .00012943
INCLINATION    = 42.9964
RA_OF_ASC_NODE = 177.1500
ARG_OF_PERICENTER = 271.9268
MEAN_ANOMALY   = 260.9091

EPHEMERIS_TYPE = 0
CLASSIFICATION_TYPE = U
NORAD_CAT_ID   = 67509
ELEMENT_SET_NO = 999
REV_AT_EPOCH   = 282
BSTAR          = -.63916574E-2
MEAN_MOTION_DOT = -.2461578E-1
MEAN_MOTION_DDOT = .16428411E-2

CCSDS_OMM_VERS = 2.0
CREATION_DATE  = 
ORIGINATOR     = 

OBJECT_NAME    = STARLINK-36549
OBJECT_ID      = 2026-012T
CENTER_NAME    = EARTH
REF_FRAME      = TEME
TIME_SYSTEM    = UTC
MEAN_ELEMENT_THEORY = SGP/SGP4

EPOCH          = 2026-01-30T06:00:02.000160
MEAN_MOTION    = 15.96480218
ECCENTRICITY   = .00014922
INCLINATION    = 42.9957
RA_OF_ASC_NODE = 177.0033
ARG_OF_PERICENTER = 262.7279
MEAN_ANOMALY   = 327.6395

EPHEMERIS_TYPE = 0
CLASSIFICATION_TYPE = U
NORAD_CAT_ID   = 67510
ELEMENT_SET_NO = 999
REV_AT_EPOCH   = 282
BSTAR          = -.37188127E-2
MEAN_MOTION_DOT = -.1618497E-1
MEAN_MOTION_DDOT = .76321796E-3

CCSDS_OMM_VERS = 2.0
CREATION_DATE  = 
ORIGINATOR     = 

OBJECT_NAME    = STARLINK-36540
OBJECT_ID      = 2026-012U
CENTER_NAME    = EARTH
REF_FRAME      = TEME
TIME_SYSTEM    = UTC
MEAN_ELEMENT_THEORY = SGP/SGP4

EPOCH          = 2026-01-30T06:00:02.000160
MEAN_MOTION    = 15.94664851
ECCENTRICITY   = .00012876
INCLINATION    = 42.9964
RA_OF_ASC_NODE = 177.1445
ARG_OF_PERICENTER = 270.9162
MEAN_ANOMALY   = 264.3579

EPHEMERIS_TYPE = 0
CLASSIFICATION_TYPE = U
NORAD_CAT_ID   = 67511
ELEMENT_SET_NO = 999
REV_AT_EPOCH   = 288
BSTAR          = -.64253197E-2
MEAN_MOTION_DOT = -.2520958E-1
MEAN_MOTION_DDOT = .17277653E-2

CCSDS_OMM_VERS = 2.0
CREATION_DATE  = 
ORIGINATOR     = 

OBJECT_NAME    = STARLINK-36538
OBJECT_ID      = 2026-012V
CENTER_NAME    = EARTH
REF_FRAME      = TEME
TIME_SYSTEM    = UTC
MEAN_ELEMENT_THEORY = SGP/SGP4

EPOCH          = 2026-01-30T06:00:02.000160
MEAN_MOTION    = 15.94920802
ECCENTRICITY   = .00015732
INCLINATION    = 42.9967
RA_OF_ASC_NODE = 177.1348
ARG_OF_PERICENTER = 268.5674
MEAN_ANOMALY   = 270.3410

EPHEMERIS_TYPE = 0
CLASSIFICATION_TYPE = U
NORAD_CAT_ID   = 67512
ELEMENT_SET_NO = 999
REV_AT_EPOCH   = 288
BSTAR          = -.41690851E-2
MEAN_MOTION_DOT = -.1666358E-1
MEAN_MOTION_DDOT = .79263839E-3

CCSDS_OMM_VERS = 2.0
CREATION_DATE  = 
ORIGINATOR     = 

OBJECT_NAME    = STARLINK-36531
OBJECT_ID      = 2026-012W
CENTER_NAME    = EARTH
REF_FRAME      = TEME
TIME_SYSTEM    = UTC
MEAN_ELEMENT_THEORY = SGP/SGP4

EPOCH          = 2026-01-30T06:00:02.000160
MEAN_MOTION    = 15.95030475
ECCENTRICITY   = .00014553
INCLINATION    = 42.9970
RA_OF_ASC_NODE = 177.1279
ARG_OF_PERICENTER = 272.3357
MEAN_ANOMALY   = 269.5119

EPHEMERIS_TYPE = 0
CLASSIFICATION_TYPE = U
NORAD_CAT_ID   = 67513
ELEMENT_SET_NO = 999
REV_AT_EPOCH   = 282
BSTAR          = -.41856291E-2
MEAN_MOTION_DOT = -.1682643E-1
MEAN_MOTION_DDOT = .80790258E-3

CCSDS_OMM_VERS = 2.0
CREATION_DATE  = 
ORIGINATOR     = 

OBJECT_NAME    = STARLINK-36530
OBJECT_ID      = 2026-012X
CENTER_NAME    = EARTH
REF_FRAME      = TEME
TIME_SYSTEM    = UTC
MEAN_ELEMENT_THEORY = SGP/SGP4

EPOCH          = 2026-01-30T06:00:02.000160
MEAN_MOTION    = 15.95152836
ECCENTRICITY   = .00014566
INCLINATION    = 42.9967
RA_OF_ASC_NODE = 177.1176
ARG_OF_PERICENTER = 265.2425
MEAN_ANOMALY   = 280.4738

EPHEMERIS_TYPE = 0
CLASSIFICATION_TYPE = U
NORAD_CAT_ID   = 67514
ELEMENT_SET_NO = 999
REV_AT_EPOCH   = 282
BSTAR          = -.41022397E-2
MEAN_MOTION_DOT = -.1660336E-1
MEAN_MOTION_DDOT = .7892147E-3

CCSDS_OMM_VERS = 2.0
CREATION_DATE  = 
ORIGINATOR     = 

OBJECT_NAME    = STARLINK-36543
OBJECT_ID      = 2026-012Y
CENTER_NAME    = EARTH
REF_FRAME      = TEME
TIME_SYSTEM    = UTC
MEAN_ELEMENT_THEORY = SGP/SGP4

EPOCH          = 2026-01-30T06:00:02.000160
MEAN_MOTION    = 15.95272103
ECCENTRICITY   = .00015387
INCLINATION    = 42.9966
RA_OF_ASC_NODE = 177.1090
ARG_OF_PERICENTER = 265.8215
MEAN_ANOMALY   = 283.4440

EPHEMERIS_TYPE = 0
CLASSIFICATION_TYPE = U
NORAD_CAT_ID   = 67515
ELEMENT_SET_NO = 999
REV_AT_EPOCH   = 282
BSTAR          = -.40588666E-2
MEAN_MOTION_DOT = -.1653514E-1
MEAN_MOTION_DDOT = .78418975E-3

CCSDS_OMM_VERS = 2.0
CREATION_DATE  = 
ORIGINATOR     = 

OBJECT_NAME    = STARLINK-36537
OBJECT_ID      = 2026-012Z
CENTER_NAME    = EARTH
REF_FRAME      = TEME
TIME_SYSTEM    = UTC
MEAN_ELEMENT_THEORY = SGP/SGP4

EPOCH          = 2026-01-30T06:00:02.000160
MEAN_MOTION    = 15.95567210
ECCENTRICITY   = .00015935
INCLINATION    = 42.9964
RA_OF_ASC_NODE = 177.0874
ARG_OF_PERICENTER = 268.2734
MEAN_ANOMALY   = 289.2704

EPHEMERIS_TYPE = 0
CLASSIFICATION_TYPE = U
NORAD_CAT_ID   = 67516
ELEMENT_SET_NO = 999
REV_AT_EPOCH   = 282
BSTAR          = -.39801374E-2
MEAN_MOTION_DOT = -.1647666E-1
MEAN_MOTION_DDOT = .78142564E-3

CCSDS_OMM_VERS = 2.0
CREATION_DATE  = 
ORIGINATOR     = 

OBJECT_NAME    = STARLINK-36544
OBJECT_ID      = 2026-012AA
CENTER_NAME    = EARTH
REF_FRAME      = TEME
TIME_SYSTEM    = UTC
MEAN_ELEMENT_THEORY = SGP/SGP4

EPOCH          = 2026-01-30T06:00:02.000160
MEAN_MOTION    = 15.95404545
ECCENTRICITY   = .00015136
INCLINATION    = 42.9965
RA_OF_ASC_NODE = 177.0989
ARG_OF_PERICENTER = 268.7344
MEAN_ANOMALY   = 284.3177

EPHEMERIS_TYPE = 0
CLASSIFICATION_TYPE = U
NORAD_CAT_ID   = 67517
ELEMENT_SET_NO = 999
REV_AT_EPOCH   = 288
BSTAR          = -.40326838E-2
MEAN_MOTION_DOT = -.1654646E-1
MEAN_MOTION_DDOT = .78624044E-3

CCSDS_OMM_VERS = 2.0
CREATION_DATE  = 
ORIGINATOR     = 

OBJECT_NAME    = STARLINK-36412
OBJECT_ID      = 2026-012AB
CENTER_NAME    = EARTH
REF_FRAME      = TEME
TIME_SYSTEM    = UTC
MEAN_ELEMENT_THEORY = SGP/SGP4

EPOCH          = 2026-01-30T06:00:02.000160
MEAN_MOTION    = 15.95918646
ECCENTRICITY   = .00015517
INCLINATION    = 42.9965
RA_OF_ASC_NODE = 177.0588
ARG_OF_PERICENTER = 271.0249
MEAN_ANOMALY   = 297.9827

EPHEMERIS_TYPE = 0
CLASSIFICATION_TYPE = U
NORAD_CAT_ID   = 67518
ELEMENT_SET_NO = 999
REV_AT_EPOCH   = 282
BSTAR          = -.39264831E-2
MEAN_MOTION_DOT = -.1656696E-1
MEAN_MOTION_DDOT = .7921984E-3

